[{"OBJECT_NAME":"UNIFORM 1","OBJECT_ID":"2014-029B","EPOCH":"2026-03-09T20:40:30.377280","MEAN_MOTION":14.95353458,"ECCENTRICITY":0.00039155,"INCLINATION":97.8,"RA_OF_ASC_NODE":166.6615,"ARG_OF_PERICENTER":280.7355,"MEAN_ANOMALY":79.3425,"EPHEMERIS_TYPE":0,"CLASSIFICATION_TYPE":"U","NORAD_CAT_ID":39767,"ELEMENT_SET_NO":999,"REV_AT_EPOCH":63937,"BSTAR":0.00032279385,"MEAN_MOTION_DOT":3.504e-5,"MEAN_MOTION_DDOT":0},{"OBJECT_NAME":"STARLINK-35864","OBJECT_ID":"2025-298G","EPOCH":"2026-03-09T23:27:56.636640","MEAN_MOTION":14.98572932,"ECCENTRICITY":0.00033352,"INCLINATION":70.0031,"RA_OF_ASC_NODE":13.6076,"ARG_OF_PERICENTER":298.5733,"MEAN_ANOMALY":61.509,"EPHEMERIS_TYPE":0,"CLASSIFICATION_TYPE":"U","NORAD_CAT_ID":67081,"ELEMENT_SET_NO":999,"REV_AT_EPOCH":1326,"BSTAR":-0.01738886,"MEAN_MOTION_DOT":-0.00202964,"MEAN_MOTION_DDOT":0}]
